{"type":"FeatureCollection","name":"ne_50m_lakes","crs":{"type":"name","properties":{"name":"urn:ogc:def:crs:OGC:1.3:CRS84"}},"features":[{"type":"Feature","properties":{"name":"Lake Chad"},"bbox":[14.258887,12.876758,14.742773,13.238721],"geometry":{"type":"Polygon","coordinates":[[[14.742285,13.078027],[14.742773,13.062354],[14.716016,13.046631],[14.694336,13.023633],[14.685547,12.993066],[14.660645,12.982373],[14.619629,12.991553],[14.592188,12.989941],[14.516211,12.979736],[14.474805,12.951758],[14.406641,12.89917],[14.346582,12.876758],[14.294727,12.884473],[14.275,12.90293],[14.258887,12.986084],[14.258984,13.004297],[14.282227,13.014453],[14.288867,13.029248],[14.307129,13.06543],[14.310742,13.082031],[14.311816,13.087061],[14.330371,13.116406],[14.330371,13.134961],[14.342383,13.162109],[14.369629,13.185059],[14.414648,13.208838],[14.495996,13.238721],[14.554395,13.238477],[14.591406,13.213721],[14.653125,13.208447],[14.668262,13.195264],[14.706641,13.136963],[14.742285,13.078027],[14.742285,13.078027],[14.742285,13.078027]]]}},{"type":"Feature","properties":{"name":"Lake Tana"},"bbox":[37.001953,11.631934,37.591797,12.303271],"geometry":{"type":"Polygon","coordinates":[[[37.285547,11.794482],[37.252734,11.819678],[37.211133,11.822217],[37.169238,11.816602],[37.145508,11.833496],[37.112988,11.855078],[37.095898,11.840283],[37.078125,11.829492],[37.058203,11.834082],[37.040234,11.851855],[37.023926,11.879883],[37.001953,11.906641],[37.006055,11.971729],[37.008008,12.02876],[37.016504,12.086719],[37.027832,12.164502],[37.048145,12.210254],[37.071777,12.243213],[37.095898,12.265674],[37.126074,12.270117],[37.164453,12.259521],[37.194727,12.230566],[37.219141,12.22959],[37.269141,12.224219],[37.332715,12.272363],[37.376758,12.288037],[37.413281,12.290723],[37.460254,12.303271],[37.496094,12.285547],[37.528906,12.258984],[37.555176,12.222998],[37.565918,12.164453],[37.591797,12.11709],[37.584766,12.08374],[37.583496,12.049072],[37.576563,12.017871],[37.559961,11.985596],[37.550195,11.941943],[37.512891,11.909912],[37.500977,11.875635],[37.495898,11.834814],[37.439941,11.753418],[37.387207,11.632275],[37.36123,11.63457],[37.342188,11.631934],[37.326855,11.635889],[37.320117,11.647656],[37.300586,11.668457],[37.321777,11.709082],[37.308789,11.741162],[37.289258,11.771338],[37.285547,11.794482],[37.285547,11.794482],[37.285547,11.794482]]]}},{"type":"Feature","properties":{"name":"IJsselmeer"},"bbox":[5.014063,52.251904,5.87002,53.064697],"geometry":{"type":"Polygon","coordinates":[[[5.867188,52.563184],[5.867188,52.563184],[5.867188,52.563184],[5.867188,52.563184],[5.87002,52.485352],[5.795117,52.427686],[5.495313,52.251904],[5.316016,52.291504],[5.039941,52.344141],[5.014063,52.364307],[5.03623,52.40459],[5.062305,52.430713],[5.069043,52.451367],[5.069824,52.52041],[5.059961,52.565576],[5.065918,52.62373],[5.137988,52.626611],[5.241699,52.669824],[5.247461,52.730371],[5.164844,52.785742],[5.117578,52.835986],[5.094043,52.886182],[5.068066,52.923437],[5.152344,52.966699],[5.268945,53.027246],[5.377246,53.064697],[5.398242,53.041943],[5.413086,52.902637],[5.42041,52.874463],[5.45498,52.857178],[5.547266,52.845654],[5.656836,52.851416],[5.666992,52.817334],[5.625293,52.781836],[5.617969,52.757666],[5.613086,52.684375],[5.619141,52.658496],[5.653418,52.629639],[5.835449,52.609277],[5.867188,52.563184]],[[5.800879,52.465771],[5.800879,52.465771],[5.800879,52.465771],[5.800879,52.465771],[5.83418,52.502246],[5.829492,52.535449],[5.797461,52.5646],[5.735547,52.582227],[5.658105,52.587598],[5.539258,52.557715],[5.376953,52.490332],[5.168555,52.37876],[5.183887,52.35835],[5.242383,52.33374],[5.424414,52.297656],[5.499121,52.301855],[5.548047,52.324414],[5.620605,52.375928],[5.741016,52.429004],[5.800879,52.465771]]]}},{"type":"Feature","properties":{"name":"Kaliningradskiy Zaliv"},"bbox":[19.71709,54.433838,20.404883,54.709961],"geometry":{"type":"Polygon","coordinates":[[[19.764063,54.433838],[19.71709,54.482275],[19.878711,54.589111],[19.941504,54.64668],[19.958398,54.682031],[19.987988,54.709961],[20.033496,54.702051],[20.084277,54.673145],[20.208301,54.683984],[20.208301,54.683984],[20.208301,54.683984],[20.208301,54.683984],[20.208301,54.683984],[20.208301,54.683984],[20.404883,54.681641],[20.102246,54.58252],[19.929199,54.517139],[19.768945,54.437988],[19.764063,54.433838]]]}},{"type":"Feature","properties":{"name":"Zalev Wislany"},"bbox":[19.250977,54.267969,19.764063,54.482275],"geometry":{"type":"Polygon","coordinates":[[[19.71709,54.482275],[19.764063,54.433838],[19.738477,54.411816],[19.658301,54.37417],[19.585938,54.348486],[19.480859,54.300439],[19.346777,54.267969],[19.250977,54.310645],[19.278613,54.338379],[19.502734,54.380957],[19.616406,54.426416],[19.71709,54.482275]]]}},{"type":"Feature","properties":{"name":"Lake Tharthar"},"bbox":[43.066016,33.70625,43.492773,34.32915],"geometry":{"type":"Polygon","coordinates":[[[43.26123,33.727734],[43.196289,33.79209],[43.106152,33.915186],[43.073633,34.112988],[43.066016,34.258057],[43.083594,34.314746],[43.11582,34.32915],[43.23877,34.141406],[43.362305,34.042676],[43.46748,33.950439],[43.492773,33.888037],[43.476465,33.806934],[43.47832,33.729102],[43.419629,33.70625],[43.331836,33.71709],[43.26123,33.727734],[43.26123,33.727734],[43.26123,33.727734],[43.26123,33.727734]]]}},{"type":"Feature","properties":{"name":"Razzaza Lake"},"bbox":[43.423047,32.531006,43.878418,33.079443],"geometry":{"type":"Polygon","coordinates":[[[43.878418,32.687695],[43.862598,32.611523],[43.792578,32.535156],[43.739453,32.531006],[43.668066,32.553467],[43.628613,32.579932],[43.577246,32.595508],[43.482129,32.642383],[43.437598,32.714941],[43.423047,32.810352],[43.432422,32.868945],[43.451465,32.879248],[43.475098,32.919482],[43.468555,33.010889],[43.507812,33.059863],[43.550195,33.079443],[43.582715,33.039355],[43.719922,32.808447],[43.820605,32.732129],[43.878418,32.687695],[43.878418,32.687695],[43.878418,32.687695],[43.878418,32.687695]]]}},{"type":"Feature","properties":{"name":"Dead Sea"},"bbox":[35.402148,31.325391,35.585352,31.765527],"geometry":{"type":"Polygon","coordinates":[[[35.585352,31.72417],[35.566797,31.573975],[35.545117,31.359131],[35.520996,31.327246],[35.422852,31.325391],[35.403125,31.348242],[35.402148,31.492432],[35.421387,31.618555],[35.462598,31.710352],[35.521973,31.755859],[35.558984,31.765527],[35.585352,31.72417],[35.585352,31.72417],[35.585352,31.72417],[35.585352,31.72417]]]}},{"type":"Feature","properties":{"name":"Kainji Reservoir"},"bbox":[4.399512,9.864502,4.685254,10.644043],"geometry":{"type":"Polygon","coordinates":[[[4.685254,10.365479],[4.678516,10.344336],[4.598242,10.196094],[4.599805,10.112939],[4.61709,10.002783],[4.658594,9.884717],[4.625684,9.864502],[4.594043,9.866797],[4.565723,9.903223],[4.536816,10.028271],[4.495508,10.06626],[4.47373,10.07002],[4.467871,10.098486],[4.495215,10.126123],[4.510059,10.147559],[4.505762,10.173682],[4.470215,10.186035],[4.463867,10.195898],[4.484863,10.228809],[4.46543,10.305518],[4.399609,10.375293],[4.399512,10.403369],[4.437891,10.418066],[4.450977,10.437891],[4.459473,10.460059],[4.470313,10.626709],[4.491504,10.644043],[4.566895,10.602783],[4.606152,10.616553],[4.656152,10.607227],[4.680371,10.584766],[4.649609,10.516895],[4.667188,10.410059],[4.685254,10.365479],[4.685254,10.365479],[4.685254,10.365479]]]}},{"type":"Feature","properties":{"name":"Lake Urmia"},"bbox":[45.01543,37.134863,45.857715,38.264258],"geometry":{"type":"Polygon","coordinates":[[[45.666309,37.741895],[45.666309,37.741895],[45.666309,37.741895],[45.666309,37.741895],[45.74668,37.701172],[45.74873,37.662549],[45.75498,37.577734],[45.857715,37.426465],[45.831152,37.340527],[45.702637,37.302979],[45.662793,37.288135],[45.6125,37.211719],[45.535547,37.134863],[45.448535,37.149463],[45.364551,37.226611],[45.29248,37.438037],[45.257129,37.61543],[45.253223,37.684961],[45.23418,37.763672],[45.087012,37.8854],[45.080273,37.987598],[45.155469,38.044531],[45.188184,38.107861],[45.171191,38.143848],[45.091797,38.140039],[45.01543,38.144385],[45.025977,38.192725],[45.105566,38.264258],[45.356934,38.264258],[45.458398,38.173437],[45.487305,38.072949],[45.447461,37.932422],[45.435938,37.806201],[45.483203,37.753564],[45.546094,37.754346],[45.666309,37.741895]]]}},{"type":"Feature","properties":{"name":"Sarygamysh Köli"},"bbox":[57.053418,41.573242,57.865039,42.334912],"geometry":{"type":"Polygon","coordinates":[[[57.865039,41.773145],[57.817773,41.699854],[57.684863,41.636182],[57.526758,41.594482],[57.42959,41.578564],[57.345605,41.573242],[57.247168,41.652539],[57.174414,41.73457],[57.115918,41.731348],[57.061816,41.724854],[57.053418,41.773389],[57.09375,41.968408],[57.182715,42.185352],[57.272656,42.30332],[57.392285,42.334912],[57.549805,42.260693],[57.627246,42.149609],[57.613086,42.105029],[57.631738,42.065527],[57.682422,42.0104],[57.700293,41.912646],[57.844824,41.837842],[57.865039,41.773145],[57.865039,41.773145],[57.865039,41.773145]]]}},{"type":"Feature","properties":{"name":"Kremenchuk Reservoir"},"bbox":[31.887988,48.993604,33.194336,49.569678],"geometry":{"type":"Polygon","coordinates":[[[33.16709,49.019287],[33.1625,48.993604],[33.07627,49.004346],[33.066113,49.021387],[33.043457,49.063135],[32.980859,49.082568],[32.863379,49.087256],[32.769531,49.115918],[32.718066,49.140137],[32.620508,49.198633],[32.408203,49.301709],[32.293555,49.346191],[32.170117,49.404395],[31.900488,49.512793],[31.887988,49.554443],[31.955371,49.569678],[32.114453,49.541309],[32.183594,49.520947],[32.35,49.469092],[32.461426,49.426074],[32.631836,49.381836],[32.682422,49.400977],[32.659473,49.464404],[32.664648,49.537012],[32.712012,49.559375],[32.753906,49.484766],[32.860645,49.407812],[33.01543,49.280664],[33.104102,49.200146],[33.194336,49.11875],[33.193945,49.093896],[33.16709,49.019287],[33.16709,49.019287],[33.16709,49.019287]]]}},{"type":"Feature","properties":{"name":"Lake Tuz"},"bbox":[33.158105,38.522754,33.673535,39.126709],"geometry":{"type":"Polygon","coordinates":[[[33.45752,38.853613],[33.524512,38.811963],[33.597461,38.798926],[33.673535,38.712305],[33.61709,38.577783],[33.533105,38.522754],[33.422559,38.558643],[33.325586,38.610645],[33.235742,38.666699],[33.158105,38.772119],[33.21875,38.87627],[33.292773,38.967236],[33.309277,39.057373],[33.305371,39.126709],[33.350391,39.120361],[33.42373,39.055811],[33.454492,38.991895],[33.440137,38.938184],[33.45752,38.853613],[33.45752,38.853613],[33.45752,38.853613]]]}},{"type":"Feature","properties":{"name":"Lake Geneva"},"bbox":[6.133301,46.20459,6.873633,46.528809],"geometry":{"type":"Polygon","coordinates":[[[6.873633,46.432227],[6.866406,46.402588],[6.84502,46.384814],[6.665332,46.402441],[6.468848,46.388574],[6.336426,46.360937],[6.157031,46.205078],[6.133301,46.20459],[6.158398,46.302441],[6.343945,46.457617],[6.588184,46.528809],[6.818848,46.465625],[6.873633,46.432227],[6.873633,46.432227],[6.873633,46.432227]]]}},{"type":"Feature","properties":{"name":"Lough Neagh"},"bbox":[-6.584717,54.499414,-6.271875,54.722803],"geometry":{"type":"Polygon","coordinates":[[[-6.488379,54.722803],[-6.458594,54.715381],[-6.31792,54.708838],[-6.271875,54.66001],[-6.282324,54.60376],[-6.348828,54.524707],[-6.354297,54.502197],[-6.427393,54.499414],[-6.562402,54.514648],[-6.584717,54.56001],[-6.54126,54.623291],[-6.511426,54.698389],[-6.488379,54.722803],[-6.488379,54.722803],[-6.488379,54.722803]]]}},{"type":"Feature","properties":{"name":"Lake Van"},"bbox":[42.353125,38.326074,43.610742,38.987842],"geometry":{"type":"Polygon","coordinates":[[[42.988672,38.345605],[42.922754,38.390039],[42.911621,38.426123],[42.882227,38.476807],[42.856445,38.48374],[42.780957,38.458594],[42.683301,38.456543],[42.586133,38.481592],[42.538477,38.489697],[42.353125,38.499805],[42.364551,38.548535],[42.433984,38.610498],[42.458398,38.642773],[42.458008,38.692187],[42.525977,38.745166],[42.722852,38.78208],[42.84502,38.793994],[42.934766,38.794189],[43.079395,38.809326],[43.162793,38.846191],[43.158789,38.868994],[43.126465,38.881836],[43.087598,38.881396],[43.075195,38.916113],[43.152148,38.947559],[43.284961,38.963574],[43.435938,38.987842],[43.560156,38.977637],[43.610742,38.947021],[43.531055,38.89751],[43.382812,38.836084],[43.291895,38.812793],[43.209961,38.715918],[43.186426,38.603125],[43.287109,38.547998],[43.318359,38.488721],[43.23457,38.407227],[43.147656,38.336621],[43.087695,38.326074],[42.988672,38.345605],[42.988672,38.345605],[42.988672,38.345605]]]}},{"type":"Feature","properties":{"name":"Lake Balaton"},"bbox":[17.269336,46.721289,18.163672,47.054688],"geometry":{"type":"Polygon","coordinates":[[[17.585645,46.765674],[17.475879,46.723535],[17.277246,46.721289],[17.269336,46.742188],[17.270605,46.759961],[17.308594,46.763477],[17.383496,46.779004],[17.478711,46.800049],[17.66543,46.852344],[17.823633,46.911182],[17.881055,46.943213],[17.95459,46.987256],[18.039062,47.037109],[18.077539,47.054688],[18.130469,47.039258],[18.163672,47.010547],[18.142676,46.963086],[17.880859,46.866455],[17.672168,46.790527],[17.585645,46.765674],[17.585645,46.765674],[17.585645,46.765674],[17.585645,46.765674]]]}},{"type":"Feature","properties":{"name":"Lake Sevan"},"bbox":[44.972266,40.148828,45.65918,40.614355],"geometry":{"type":"Polygon","coordinates":[[[44.989648,40.51499],[44.972266,40.542334],[44.988867,40.582324],[44.98623,40.611572],[45.014551,40.614355],[45.095313,40.590332],[45.241699,40.510205],[45.31084,40.488281],[45.372949,40.47915],[45.437012,40.435156],[45.536719,40.364697],[45.601953,40.318262],[45.63623,40.278711],[45.655762,40.242676],[45.65918,40.21543],[45.651367,40.194971],[45.607617,40.172168],[45.543164,40.155518],[45.480664,40.155957],[45.38877,40.151416],[45.312695,40.148828],[45.275879,40.163818],[45.248438,40.197461],[45.218262,40.295898],[45.183496,40.385254],[45.15332,40.403564],[45.124609,40.428174],[45.095313,40.461084],[45.039844,40.490479],[44.989648,40.51499],[44.989648,40.51499],[44.989648,40.51499],[44.989648,40.51499]]]}},{"type":"Feature","properties":{"name":"Lake Hammar"},"bbox":[46.711719,30.663135,47.608496,30.91665],"geometry":{"type":"Polygon","coordinates":[[[47.608496,30.689453],[47.573145,30.663623],[47.491309,30.663135],[47.406934,30.677881],[47.245313,30.710645],[47.103711,30.740186],[47.039746,30.742383],[46.953027,30.733057],[46.878809,30.727344],[46.852051,30.721729],[46.822168,30.725342],[46.807227,30.7375],[46.804199,30.763672],[46.801758,30.785986],[46.791602,30.802539],[46.765332,30.816553],[46.750488,30.823242],[46.718652,30.836816],[46.711719,30.866846],[46.748438,30.902539],[46.800879,30.912939],[46.818262,30.9146],[46.860742,30.91665],[46.89668,30.899609],[46.925977,30.891602],[46.983008,30.856738],[47.062793,30.828076],[47.10332,30.825781],[47.145898,30.813525],[47.194434,30.800244],[47.289746,30.771533],[47.357422,30.782324],[47.429199,30.811865],[47.471973,30.813965],[47.499805,30.808936],[47.503906,30.796777],[47.530176,30.767773],[47.590039,30.712549],[47.608496,30.689453],[47.608496,30.689453],[47.608496,30.689453],[47.608496,30.689453]]]}},{"type":"Feature","properties":{"name":"Lake Assal"},"bbox":[42.395898,11.629297,42.446875,11.712012],"geometry":{"type":"Polygon","coordinates":[[[42.446875,11.677246],[42.441016,11.640039],[42.41709,11.629297],[42.398926,11.64502],[42.395898,11.671729],[42.398633,11.693359],[42.411328,11.712012],[42.436133,11.697119],[42.446875,11.677246],[42.446875,11.677246],[42.446875,11.677246]]]}},{"type":"Feature","properties":{"name":"Bodensee"},"bbox":[9.113184,47.506396,9.730664,47.782178],"geometry":{"type":"Polygon","coordinates":[[[9.730664,47.526904],[9.718555,47.514893],[9.685449,47.506396],[9.554395,47.511133],[9.452344,47.513965],[9.250293,47.597949],[9.182813,47.670703],[9.113184,47.772119],[9.132031,47.782178],[9.230762,47.733301],[9.372852,47.67666],[9.513965,47.624756],[9.644238,47.566357],[9.730664,47.526904],[9.730664,47.526904],[9.730664,47.526904],[9.730664,47.526904]]]}},{"type":"Feature","properties":{"name":"Dead Sea"},"bbox":[35.376758,31.096338,35.522461,31.231738],"geometry":{"type":"Polygon","coordinates":[[[35.522461,31.177051],[35.516895,31.154443],[35.508398,31.125244],[35.497949,31.104932],[35.459277,31.096338],[35.416504,31.104395],[35.391406,31.135156],[35.376758,31.17793],[35.381836,31.215625],[35.400684,31.230518],[35.445605,31.231738],[35.493555,31.205029],[35.522461,31.177051],[35.522461,31.177051],[35.522461,31.177051],[35.522461,31.177051]]]}},{"type":"Feature","properties":{"name":"Sea of Galilee"},"bbox":[35.533887,32.720312,35.63584,32.899707],"geometry":{"type":"Polygon","coordinates":[[[35.631641,32.781641],[35.615918,32.74917],[35.576855,32.720312],[35.55127,32.749609],[35.533887,32.803418],[35.53916,32.855615],[35.565039,32.891602],[35.598926,32.899707],[35.622852,32.878369],[35.63584,32.833838],[35.631641,32.781641],[35.631641,32.781641],[35.631641,32.781641],[35.631641,32.781641]]]}},{"type":"Feature","properties":{"name":"South Aral Sea"},"bbox":[58.221012,44.42472,59.302889,46.002393],"geometry":{"type":"Polygon","coordinates":[[[58.312075,45.06201],[58.37249,45.130523],[58.417007,45.290684],[58.549367,45.40771],[58.57403,45.532132],[58.638358,45.590201],[58.652714,45.721985],[58.711704,45.834903],[58.838334,45.834166],[58.81367,45.881653],[58.849377,45.918096],[59.059936,45.894536],[59.079078,45.943495],[59.179204,45.925826],[59.240311,45.993926],[59.302889,46.002393],[59.243992,45.892328],[59.104846,45.896745],[58.914165,45.794779],[58.869437,45.596097],[58.766184,45.562685],[58.671948,45.459614],[58.629247,45.263779],[58.682255,45.129787],[58.54679,45.007574],[58.588019,44.989905],[58.567036,44.915178],[58.624462,44.817997],[58.562619,44.772352],[58.524336,44.569155],[58.483107,44.504367],[58.364275,44.42472],[58.260032,44.431481],[58.235001,44.46093],[58.236776,44.524463],[58.321139,44.603021],[58.221012,44.84671],[58.312075,45.06201]]]}},{"type":"Feature","properties":{"name":"North Aral Sea"},"bbox":[59.988403,46.085954,61.528486,46.783892],"geometry":{"type":"Polygon","coordinates":[[[60.782878,46.085954],[60.752342,46.117724],[60.824808,46.201046],[60.722416,46.374185],[60.579589,46.2932],[60.348415,46.402897],[60.133439,46.356515],[59.988403,46.437868],[60.001655,46.57186],[60.286665,46.700146],[60.367649,46.616953],[60.401081,46.509323],[60.410398,46.504097],[60.42017,46.508414],[60.453347,46.617945],[60.459255,46.623399],[60.470617,46.62249],[60.580049,46.563025],[60.740808,46.627035],[60.745807,46.638851],[60.745353,46.653395],[60.525568,46.750762],[60.524832,46.777266],[60.580049,46.783892],[60.810767,46.747149],[60.776068,46.581431],[60.892391,46.473206],[61.133871,46.449647],[61.255738,46.492507],[61.263919,46.499779],[61.265282,46.512505],[61.202564,46.577496],[61.296576,46.61088],[61.314981,46.647691],[61.528486,46.677139],[61.450446,46.584376],[61.369814,46.527503],[61.283462,46.447514],[61.300257,46.38486],[61.217064,46.236879],[60.976685,46.16988],[60.862482,46.090003],[60.782878,46.085954]]]}},{"type":"Feature","properties":{"name":"Barsakelmes Lake"},"bbox":[59.504062,46.082839,59.813275,46.321671],"geometry":{"type":"Polygon","coordinates":[[[59.728654,46.082839],[59.591672,46.209087],[59.504062,46.318784],[59.730822,46.321671],[59.784562,46.284181],[59.813275,46.123685],[59.728654,46.082839]]]}},{"type":"Feature","properties":{"name":"Syvash"},"bbox":[33.696191,45.255371,35.439063,46.266602],"geometry":{"type":"Polygon","coordinates":[[[35.399023,45.255371],[35.276367,45.302148],[35.089453,45.357861],[35.061914,45.378711],[35.042578,45.40249],[35.040234,45.428516],[35.080273,45.499316],[35.05166,45.565137],[35.024219,45.603857],[35.000293,45.630713],[34.882031,45.687305],[34.833887,45.724561],[34.762305,45.742969],[34.742676,45.786475],[34.683008,45.803613],[34.67627,45.819141],[34.644922,45.837451],[34.495215,45.785303],[34.495117,45.802832],[34.618262,45.914844],[34.619238,45.934961],[34.607617,45.943799],[34.567773,45.952393],[34.525195,45.906543],[34.49668,45.899219],[34.459766,45.91709],[34.411719,45.889795],[34.390039,45.887891],[34.37998,45.901318],[34.387891,45.950391],[34.381836,45.979199],[34.3625,46.000342],[34.271484,46.026855],[34.226953,46.021436],[34.189746,46.02959],[34.181934,46.016064],[34.187109,45.976562],[34.186621,45.95625],[34.164453,45.944385],[34.140332,45.962598],[34.132812,46.009717],[34.121484,46.02583],[34.072363,46.059277],[33.99834,46.072266],[33.977734,46.051807],[33.960156,46.040039],[33.924316,46.039111],[33.885059,46.059912],[33.831348,46.143408],[33.815234,46.142334],[33.770508,46.133301],[33.707617,46.181787],[33.696191,46.200293],[33.703906,46.214844],[33.728027,46.228125],[33.778125,46.233984],[33.848242,46.230713],[33.922266,46.21333],[34.02959,46.157324],[34.077637,46.141504],[34.106836,46.144336],[34.10332,46.182178],[34.111719,46.192773],[34.12959,46.190186],[34.147168,46.191357],[34.16377,46.20293],[34.158008,46.248486],[34.158594,46.266602],[34.174609,46.266016],[34.236426,46.213867],[34.269531,46.191357],[34.297656,46.181396],[34.311523,46.180078],[34.328613,46.189795],[34.544238,46.161182],[34.554883,46.137793],[34.548242,46.114893],[34.49248,46.11333],[34.469141,46.101123],[34.428516,46.022363],[34.443359,45.998828],[34.478711,45.983252],[34.523242,45.988135],[34.588477,46.020703],[34.640234,46.153027],[34.666699,46.173486],[34.716406,46.164648],[34.753711,46.13125],[34.75459,46.112695],[34.717676,46.090479],[34.712891,46.052832],[34.739844,46.034961],[34.788867,46.024463],[34.816211,45.959473],[34.84043,45.842969],[34.908984,45.792627],[35.031836,45.638184],[35.182031,45.472217],[35.3,45.36377],[35.426172,45.294971],[35.439063,45.275439],[35.399023,45.255371],[35.399023,45.255371],[35.399023,45.255371]]]}},{"type":"Feature","properties":{"name":"Kakhovka Reservoir"},"bbox":[33.539844,46.822217,35.301758,47.841602],"geometry":{"type":"Polygon","coordinates":[[[35.301758,47.491797],[35.269434,47.450488],[35.213184,47.449902],[35.049023,47.428174],[34.960547,47.406494],[34.807715,47.463135],[34.592383,47.520117],[34.419434,47.486963],[34.189844,47.419971],[34.176758,47.389307],[34.183398,47.345654],[34.172852,47.324561],[34.097168,47.316064],[33.904102,47.15874],[33.718164,46.940576],[33.699707,46.89873],[33.687305,46.860645],[33.559375,46.822217],[33.539844,46.83125],[33.575879,46.882568],[33.629785,47.033984],[33.655371,47.050293],[33.666797,47.041992],[33.704688,47.06084],[33.761328,47.119043],[33.777148,47.1625],[33.834766,47.212256],[33.933496,47.282422],[33.962793,47.33125],[33.964551,47.358936],[33.947266,47.451416],[33.936133,47.541455],[33.983984,47.555713],[34.066992,47.55835],[34.147852,47.542285],[34.210742,47.536182],[34.240332,47.574902],[34.266211,47.589893],[34.31582,47.566797],[34.380273,47.55752],[34.436328,47.568896],[34.486621,47.592969],[34.730664,47.577539],[34.99707,47.587598],[35.087793,47.675537],[35.085645,47.824316],[35.105664,47.841602],[35.130273,47.840039],[35.242383,47.647266],[35.301758,47.491797],[35.301758,47.491797],[35.301758,47.491797]]]}},{"type":"Feature","properties":{"name":"Samara Reservoir"},"bbox":[48.378027,53.26958,51.936523,55.832715],"geometry":{"type":"Polygon","coordinates":[[[48.387305,54.167969],[48.378027,54.231152],[48.39873,54.33667],[48.40459,54.45249],[48.41582,54.597168],[48.551465,54.652197],[48.745117,54.675049],[48.808203,54.73291],[48.831543,54.803662],[48.86377,54.870801],[48.859473,55.011621],[48.976855,55.073975],[49.159473,55.163086],[49.172266,55.292676],[49.103516,55.352881],[49.047656,55.442822],[49.058984,55.482666],[49.119531,55.475928],[49.188867,55.381201],[49.233496,55.337939],[49.30332,55.323389],[49.358008,55.339062],[49.328125,55.378906],[49.331934,55.451563],[49.329004,55.517773],[49.367383,55.544385],[49.367676,55.524268],[49.371289,55.464795],[49.454883,55.403613],[49.582813,55.390234],[49.788281,55.383496],[49.999902,55.415039],[50.089551,55.462793],[50.224805,55.438428],[50.379102,55.430518],[50.481445,55.459961],[50.675195,55.450635],[50.833887,55.479541],[51.125781,55.501123],[51.25498,55.526172],[51.331055,55.498926],[51.353418,55.495557],[51.413867,55.494385],[51.469141,55.511279],[51.466602,55.589844],[51.398047,55.684912],[51.413672,55.774463],[51.448145,55.812305],[51.480273,55.832715],[51.471582,55.79502],[51.46084,55.700977],[51.521484,55.632324],[51.634961,55.645898],[51.763477,55.720459],[51.874707,55.703613],[51.936523,55.699072],[51.88584,55.67085],[51.799609,55.683936],[51.748438,55.675293],[51.727734,55.643018],[51.714453,55.592822],[51.615039,55.565381],[51.550195,55.558398],[51.52373,55.503027],[51.410449,55.441016],[51.205859,55.488721],[51.174219,55.463477],[51.198438,55.441162],[51.21875,55.400146],[51.184277,55.357422],[51.129785,55.393018],[51.071094,55.415039],[50.877148,55.452051],[50.763574,55.428857],[50.734473,55.40708],[49.891992,55.293701],[49.810742,55.243652],[49.69248,55.190723],[49.523242,55.133887],[49.460742,55.114111],[49.452148,55.073633],[49.445508,55.051611],[49.396094,55.016064],[49.319727,55.01377],[49.224414,55.02334],[49.136426,54.997852],[49.008496,54.970068],[48.939844,54.90166],[48.969336,54.828125],[49.030273,54.808691],[49.097852,54.800488],[49.080664,54.775732],[48.986328,54.727637],[48.976074,54.666943],[48.973145,54.641211],[48.942578,54.616553],[48.895508,54.581543],[48.908789,54.549561],[48.89502,54.527979],[48.862988,54.500977],[48.864063,54.462256],[48.786523,54.447363],[48.63125,54.43501],[48.52959,54.394238],[48.499414,54.334375],[48.549414,54.240527],[48.658984,54.170898],[48.755859,54.150342],[48.798047,54.130811],[48.808887,54.098682],[48.847656,54.04541],[49.020313,54.015186],[49.275195,54.070703],[49.395313,54.119775],[49.563281,54.179443],[49.727344,54.225098],[49.742188,54.190723],[49.666406,54.159375],[49.536816,54.12666],[49.441211,54.037695],[49.308789,53.973047],[49.217871,53.934424],[49.219141,53.878027],[49.269727,53.818018],[49.320215,53.791309],[49.350684,53.770166],[49.371777,53.730469],[49.368945,53.694824],[49.344531,53.698242],[49.310352,53.722314],[49.279297,53.728125],[49.189844,53.807422],[49.126758,53.824756],[49.091113,53.793945],[49.071875,53.713281],[49.062988,53.606592],[49.086719,53.534033],[49.24668,53.5021],[49.56084,53.498779],[49.881641,53.485596],[49.904785,53.456738],[49.851855,53.426025],[49.494727,53.435986],[49.316113,53.402246],[49.257715,53.3521],[49.229883,53.284229],[49.094141,53.26958],[48.800781,53.280566],[48.759375,53.323779],[48.924805,53.309033],[49.136523,53.308936],[49.205859,53.337549],[49.20498,53.367578],[49.106445,53.40498],[48.991895,53.439795],[49.008789,53.459668],[48.955859,53.535352],[48.86543,53.647656],[48.876758,53.754297],[48.903125,53.827539],[48.882812,53.865918],[48.813379,53.938672],[48.66123,54.037891],[48.566797,54.09751],[48.468066,54.124414],[48.387305,54.167969],[48.387305,54.167969],[48.387305,54.167969]]]}},{"type":"Feature","properties":{"name":"Lake Nasser"},"bbox":[31.090625,21.60918,33.007422,23.987695],"geometry":{"type":"Polygon","coordinates":[[[32.234277,22.673877],[32.167285,22.680371],[32.127344,22.688379],[32.095508,22.683008],[32.055566,22.664648],[32.020215,22.634131],[31.986328,22.599658],[31.961914,22.572949],[31.952734,22.535205],[31.935742,22.481104],[31.897461,22.441406],[31.855371,22.414746],[31.831055,22.381006],[31.825684,22.351318],[31.791211,22.358057],[31.746094,22.362695],[31.713574,22.351465],[31.69375,22.333984],[31.678516,22.326855],[31.663672,22.32207],[31.645215,22.311719],[31.640234,22.296973],[31.647656,22.272998],[31.624902,22.242285],[31.552344,22.209033],[31.486523,22.159277],[31.441016,22.101855],[31.412109,22.057227],[31.390625,21.984473],[31.35459,21.880518],[31.319336,21.812256],[31.294531,21.784814],[31.256543,21.763525],[31.203223,21.708838],[31.155957,21.649219],[31.123535,21.611523],[31.090625,21.60918],[31.111914,21.671094],[31.168945,21.748828],[31.236133,21.847949],[31.303223,21.931641],[31.335742,22.010352],[31.372363,22.102686],[31.449707,22.210059],[31.592969,22.338721],[31.684082,22.430078],[31.704297,22.452881],[31.739746,22.469922],[31.78457,22.483496],[31.752344,22.534863],[31.679102,22.604199],[31.675684,22.625781],[31.729102,22.602832],[31.794238,22.569238],[31.824219,22.565186],[31.84082,22.583398],[31.86377,22.613525],[31.884375,22.63916],[31.91123,22.660889],[31.965039,22.697754],[32.024219,22.733594],[32.061133,22.752441],[32.088379,22.763525],[32.132227,22.780566],[32.167188,22.788281],[32.190723,22.779492],[32.222461,22.769336],[32.292188,22.7229],[32.337402,22.691016],[32.412891,22.694482],[32.500586,22.758057],[32.526172,22.794727],[32.542188,22.829248],[32.561719,22.89917],[32.582031,22.929102],[32.613867,22.967529],[32.635547,23.004199],[32.66748,23.077539],[32.7,23.151172],[32.739063,23.228955],[32.787988,23.272559],[32.819336,23.277588],[32.832813,23.292725],[32.843164,23.318018],[32.855859,23.342383],[32.851172,23.382031],[32.85293,23.438086],[32.841016,23.482861],[32.786914,23.502832],[32.743359,23.516064],[32.705957,23.493408],[32.661133,23.472266],[32.621777,23.476709],[32.599023,23.495801],[32.650391,23.533984],[32.706738,23.57041],[32.696973,23.587354],[32.675684,23.59375],[32.661133,23.580273],[32.646094,23.567383],[32.624414,23.587451],[32.654883,23.63291],[32.738867,23.624121],[32.797754,23.58374],[32.834375,23.618555],[32.853906,23.676514],[32.843457,23.707617],[32.848438,23.733252],[32.870117,23.75957],[32.87334,23.791602],[32.863281,23.828662],[32.827734,23.872998],[32.822949,23.909766],[32.879492,23.987695],[32.933008,23.940576],[32.94502,23.791211],[32.985938,23.695459],[32.980566,23.655371],[32.950977,23.642871],[32.920703,23.634082],[32.90918,23.609912],[32.910938,23.583984],[32.92373,23.56748],[32.941309,23.562793],[32.951172,23.555127],[32.987891,23.529736],[33.004785,23.50874],[32.950586,23.508594],[32.921875,23.484521],[32.944141,23.429736],[32.979004,23.396484],[32.989941,23.371094],[32.995313,23.337207],[33.006055,23.300342],[33.007129,23.260449],[33.007422,23.236963],[32.994922,23.230664],[32.957227,23.240771],[32.921289,23.249365],[32.929492,23.204297],[32.910742,23.160645],[32.864941,23.156445],[32.852637,23.142187],[32.855078,23.117432],[32.869043,23.088184],[32.906641,23.050928],[32.943652,23.003662],[32.990137,22.955078],[32.971875,22.934814],[32.858594,22.978125],[32.784961,23.039014],[32.743555,23.03252],[32.739063,23.007959],[32.72207,22.971973],[32.704785,22.946973],[32.689844,22.937988],[32.660059,22.921826],[32.631836,22.905957],[32.618359,22.896143],[32.61084,22.868994],[32.607129,22.822949],[32.586328,22.783008],[32.516309,22.724512],[32.429492,22.650977],[32.368066,22.604199],[32.331934,22.580859],[32.327832,22.550146],[32.296973,22.531299],[32.254492,22.535938],[32.248438,22.547021],[32.270117,22.564209],[32.298828,22.59209],[32.295703,22.611621],[32.278516,22.622559],[32.25625,22.641553],[32.238379,22.658643],[32.234277,22.673877],[32.234277,22.673877],[32.234277,22.673877],[32.234277,22.673877]]]}},{"type":"Feature","properties":{"name":"Lake Habbaniyah"},"bbox":[43.304297,33.190381,43.595313,33.435107],"geometry":{"type":"Polygon","coordinates":[[[43.595313,33.306152],[43.595313,33.306152],[43.595313,33.306152],[43.595313,33.306152],[43.566406,33.218506],[43.482813,33.190381],[43.434082,33.199463],[43.402441,33.256738],[43.304297,33.309424],[43.308594,33.34873],[43.382031,33.435107],[43.428027,33.389502],[43.477148,33.338379],[43.553906,33.348291],[43.595313,33.306152]]]}},{"type":"Feature","properties":{"name":"Lake Skadar"},"bbox":[19.098828,42.078809,19.480566,42.289648],"geometry":{"type":"Polygon","coordinates":[[[19.293262,42.264551],[19.293262,42.264551],[19.293262,42.264551],[19.293262,42.264551],[19.363574,42.289648],[19.391699,42.227539],[19.450781,42.156641],[19.480566,42.108154],[19.467383,42.078809],[19.394434,42.088086],[19.216406,42.158496],[19.098828,42.277588],[19.175488,42.277246],[19.293262,42.264551]]]}},{"type":"Feature","properties":{"name":""},"bbox":[8.881152,47.656396,9.127539,47.751855],"geometry":{"type":"Polygon","coordinates":[[[9.127539,47.670703],[9.127539,47.670703],[9.127539,47.670703],[8.881152,47.656396],[8.94834,47.686035],[8.980859,47.702295],[8.97666,47.729834],[8.99873,47.751855],[9.093652,47.716064],[9.127539,47.670703]]]}},{"type":"Feature","properties":{"name":"Qusmuryn Köli"},"bbox":[64.501367,52.515723,64.982324,52.908105],"geometry":{"type":"Polygon","coordinates":[[[64.573633,52.604883],[64.573633,52.604883],[64.573633,52.604883],[64.573633,52.604883],[64.685352,52.687402],[64.790039,52.767773],[64.883594,52.855957],[64.94873,52.908105],[64.982324,52.882861],[64.96709,52.731152],[64.889844,52.671875],[64.794043,52.62373],[64.765332,52.612793],[64.721973,52.593945],[64.64873,52.553125],[64.515039,52.515723],[64.501367,52.535059],[64.573633,52.604883]]]}}],"bbox":[-165.898486328125,-50.62001953125,176.08271484375,81.94033203125]}